[{"OBJECT_NAME":"STARLINK-5699","OBJECT_ID":"2023-015A","EPOCH":"2026-03-09T23:40:47.258976","MEAN_MOTION":15.02702947,"ECCENTRICITY":0.00012467,"INCLINATION":43.0033,"RA_OF_ASC_NODE":324.8108,"ARG_OF_PERICENTER":340.6338,"MEAN_ANOMALY":19.4457,"EPHEMERIS_TYPE":0,"CLASSIFICATION_TYPE":"U","NORAD_CAT_ID":55449,"ELEMENT_SET_NO":999,"REV_AT_EPOCH":17173,"BSTAR":0.0013324779,"MEAN_MOTION_DOT":0.00017922,"MEAN_MOTION_DDOT":0},{"OBJECT_NAME":"COSMOS 886 DEB","OBJECT_ID":"1976-126K","EPOCH":"2026-03-09T08:30:22.920480","MEAN_MOTION":13.29941392,"ECCENTRICITY":0.07924496,"INCLINATION":65.7667,"RA_OF_ASC_NODE":54.9403,"ARG_OF_PERICENTER":220.5455,"MEAN_ANOMALY":133.3914,"EPHEMERIS_TYPE":0,"CLASSIFICATION_TYPE":"U","NORAD_CAT_ID":9653,"ELEMENT_SET_NO":999,"REV_AT_EPOCH":33076,"BSTAR":0.00057511282,"MEAN_MOTION_DOT":1.542e-5,"MEAN_MOTION_DDOT":0}]
